NORAD_CAT_ID,OBJECT_NAME,OBJECT_TYPE,EPOCH,MEAN_MOTION,ECCENTRICITY,INCLINATION,RA_OF_ASC_NODE,ARG_OF_PERICENTER,MEAN_ANOMALY,BSTAR,MEAN_MOTION_DOT,MEAN_MOTION_DDOT,TLE_LINE0,TLE_LINE1,TLE_LINE2,SEMIMAJOR_AXIS,PERIOD,APOGEE,PERIGEE,DECAYED
53741.0,STARLINK-4614,PAYLOAD,2023-11-16 00:46:34,15.08834349,0.0001042,53.2187,80.7028,85.6888,274.4223,2.6022e-05,1.26e-06,0.0,0 STARLINK-4614,1 53741U 22107AT  23320.03234143  .00000126  00000-0  26022-4 0  9997,2 53741  53.2187  80.7028 0001042  85.6888 274.4223 15.08834349 67296,6917.898,95.438,540.484,539.042,0.0
53741.0,STARLINK-4614,PAYLOAD,2023-11-16 18:15:49,15.08834558,0.0001035,53.219,77.432,84.1709,275.9401,1.2028e-05,-9.6e-07,0.0,0 STARLINK-4614,1 53741U 22107AT  23320.76098407 -.00000096  00000-0  12028-4 0  9996,2 53741  53.2190  77.4320 0001035  84.1709 275.9401 15.08834558 66628,6917.897,95.438,540.478,539.046,0.0
53741.0,STARLINK-4614,PAYLOAD,2023-11-17 14:55:49,15.08837709,0.000111,53.2186,73.5661,84.7274,275.3845,3.7808e-05,3.14e-06,0.0,0 STARLINK-4614,1 53741U 22107AT  23321.62210353  .00000314  00000-0  37808-4 0  9993,2 53741  53.2186  73.5661 0001110  84.7274 275.3845 15.08837709 67533,6917.887,95.438,540.52,538.985,0.0
53741.0,STARLINK-4614,PAYLOAD,2023-11-18 11:35:50,15.08835912,0.0001173,53.2193,69.7011,91.6651,268.4476,2.3577e-05,8.7e-07,0.0,0 STARLINK-4614,1 53741U 22107AT  23322.48322689  .00000087  00000-0  23577-4 0  9999,2 53741  53.2193  69.7011 0001173  91.6651 268.4476 15.08835912 66886,6917.893,95.438,540.569,538.946,0.0
53741.0,STARLINK-4614,PAYLOAD,2023-11-19 14:37:24,15.08839713,0.0001108,53.2189,64.6456,83.4915,276.6204,1.7005e-05,-1.7e-07,0.0,0 STARLINK-4614,1 53741U 22107AT  23323.60930599 -.00000017  00000-0  17005-4 0  9992,2 53741  53.2189  64.6456 0001108  83.4915 276.6204 15.08839713 67837,6917.881,95.438,540.513,538.98,0.0
53741.0,STARLINK-4614,PAYLOAD,2023-11-20 12:52:47,15.08842261,0.000109,53.2188,60.4826,81.7013,278.4103,4.6257e-05,4.49e-06,0.0,0 STARLINK-4614,1 53741U 22107AT  23324.53666277  .00000449  00000-0  46257-4 0  9993,2 53741  53.2188  60.4826 0001090  81.7013 278.4103 15.08842261 67976,6917.873,95.437,540.493,538.984,0.0
53741.0,STARLINK-4614,PAYLOAD,2023-11-21 00:00:29,15.08840423,0.000109,53.2186,58.4012,80.7885,279.323,2.8329e-05,1.63e-06,0.0,0 STARLINK-4614,1 53741U 22107AT  23325.00034374  .00000163  00000-0  28329-4 0  9996,2 53741  53.2186  58.4012 0001090  80.7885 279.3230 15.08840423 67265,6917.879,95.438,540.498,538.99,0.0
53741.0,STARLINK-4614,PAYLOAD,2023-11-21 12:43:34,15.08840516,0.0001107,53.2186,56.0226,79.9478,280.1639,2.0411e-05,3.7e-07,0.0,0 STARLINK-4614,1 53741U 22107AT  23325.53026400  .00000037  00000-0  20411-4 0  9999,2 53741  53.2186  56.0226 0001107  79.9478 280.1639 15.08840516 68125,6917.879,95.438,540.51,538.978,0.0
53741.0,STARLINK-4614,PAYLOAD,2023-11-22 10:58:59,15.08836886,0.0001129,53.2186,51.8595,80.4666,279.6454,-3.1406e-05,-7.88e-06,0.0,0 STARLINK-4614,1 53741U 22107AT  23326.45762881 -.00000788  00000-0 -31406-4 0  9992,2 53741  53.2186  51.8595 0001129  80.4666 279.6454 15.08836886 67488,6917.89,95.438,540.536,538.974,0.0
53741.0,STARLINK-4614,PAYLOAD,2023-11-22 12:34:22,15.08837161,0.0001152,53.2186,51.5622,83.2192,276.8931,-2.0436e-05,-6.13e-06,0.0,0 STARLINK-4614,1 53741U 22107AT  23326.52386832 -.00000613  00000-0 -20436-4 0  9996,2 53741  53.2186  51.5622 0001152  83.2192 276.8931 15.08837161 68271,6917.889,95.438,540.551,538.957,0.0
53741.0,STARLINK-4614,PAYLOAD,2023-11-23 10:49:45,15.08841709,0.0001167,53.2186,47.399,83.5793,276.5332,3.232e-05,2.27e-06,0.0,0 STARLINK-4614,1 53741U 22107AT  23327.45122398  .00000227  00000-0  32320-4 0  9998,2 53741  53.2186  47.3990 0001167  83.5793 276.5332 15.08841709 67632,6917.875,95.437,540.547,538.933,0.0
53741.0,STARLINK-4614,PAYLOAD,2023-11-23 12:25:08,15.08841395,0.0001233,53.2192,47.1021,90.9712,269.1421,5.2641e-05,5.5e-06,0.0,0 STARLINK-4614,1 53741U 22107AT  23327.51746328  .00000550  00000-0  52641-4 0  9997,2 53741  53.2192  47.1021 0001233  90.9712 269.1421 15.08841395 68425,6917.876,95.437,540.594,538.888,0.0
53741.0,STARLINK-4614,PAYLOAD,2023-11-24 04:19:00,15.08832101,0.0001284,53.2192,44.1293,86.9155,273.1984,1.7286e-05,-1.3e-07,0.0,0 STARLINK-4614,1 53741U 22107AT  23328.17987201 -.00000013  00000-0  17286-4 0  9998,2 53741  53.2192  44.1293 0001284  86.9155 273.1984 15.08832101 67743,6917.905,95.438,540.658,538.881,0.0
53741.0,STARLINK-4614,PAYLOAD,2023-11-24 12:15:56,15.08830955,0.0001251,53.2191,42.6411,88.8772,271.2363,-1.7577e-06,-3.16e-06,0.0,0 STARLINK-4614,1 53741U 22107AT  23328.51107529 -.00000316  00000-0 -17577-5 0  9994,2 53741  53.2191  42.6411 0001251  88.8772 271.2363 15.08830955 68574,6917.908,95.438,540.638,538.908,0.0
53741.0,STARLINK-4614,PAYLOAD,2023-11-25 13:42:07,15.08836382,0.00013,53.2191,37.8833,84.3073,275.8067,1.4787e-05,-5.3e-07,0.0,0 STARLINK-4614,1 53741U 22107AT  23329.57091609 -.00000053  00000-0  14787-4 0  9998,2 53741  53.2191  37.8833 0001300  84.3073 275.8067 15.08836382 68737,6917.891,95.438,540.656,538.857,0.0
53741.0,STARLINK-4614,PAYLOAD,2023-11-26 11:57:30,15.08843593,0.0001257,53.2191,33.7208,82.7774,277.3361,0.00013702,1.894e-05,0.0,0 STARLINK-4614,1 53741U 22107AT  23330.49826800  .00001894  00000-0  13702-3 0  9998,2 53741  53.2191  33.7208 0001257  82.7774 277.3361 15.08843593 68094,6917.869,95.437,540.604,538.865,0.0
53741.0,STARLINK-4614,PAYLOAD,2023-11-27 03:51:22,15.08831632,0.0001446,53.2196,30.7501,66.1236,293.9908,9.3799e-05,1.205e-05,0.0,0 STARLINK-4614,1 53741U 22107AT  23331.16067748  .00001205  00000-0  93799-4 0  9992,2 53741  53.2196  30.7501 0001446  66.1236 293.9908 15.08831632 68194,6917.906,95.438,540.771,538.771,0.0
53741.0,STARLINK-4614,PAYLOAD,2023-11-27 11:48:18,15.0883323,0.0001312,53.2192,29.2612,80.0156,280.0984,-1.9349e-05,-5.96e-06,0.0,0 STARLINK-4614,1 53741U 22107AT  23331.49188209 -.00000596  00000-0 -19349-4 0  9997,2 53741  53.2192  29.2612 0001312  80.0156 280.0984 15.08833230 69024,6917.901,95.438,540.674,538.858,0.0
53741.0,STARLINK-4614,PAYLOAD,2023-11-28 10:03:42,15.08840862,0.0001576,53.2197,25.0991,67.8783,292.2376,-8.9955e-06,-4.31e-06,0.0,0 STARLINK-4614,1 53741U 22107AT  23332.41923894 -.00000431  00000-0 -89955-5 0  9996,2 53741  53.2197  25.0991 0001576  67.8783 292.2376 15.08840862 68381,6917.878,95.438,540.833,538.652,0.0
53741.0,STARLINK-4614,PAYLOAD,2023-11-29 09:54:28,15.0884171,0.000128,53.2192,20.6372,79.9285,280.1851,0.00010931,1.452e-05,0.0,0 STARLINK-4614,1 53741U 22107AT  23333.41283276  .00001452  00000-0  10931-3 0  9998,2 53741  53.2192  20.6372 0001280  79.9285 280.1851 15.08841710 69314,6917.875,95.437,540.626,538.855,0.0
53741.0,STARLINK-4614,PAYLOAD,2023-11-30 03:23:43,15.08840563,0.0001427,53.2204,17.3659,92.016,268.0995,1.078e-05,-1.16e-06,0.0,0 STARLINK-4614,1 53741U 22107AT  23334.14147667 -.00000116  00000-0  10780-4 0  9992,2 53741  53.2204  17.3659 0001427  92.0160 268.0995 15.08840563 68644,6917.879,95.438,540.731,538.756,0.0
53741.0,STARLINK-4614,PAYLOAD,2023-12-01 03:14:31,15.08835037,0.0001428,53.2201,12.9071,99.3134,260.802,-4.2138e-05,-9.58e-06,0.0,0 STARLINK-4614,1 53741U 22107AT  23335.13508258 -.00000958  00000-0 -42138-4 0  9996,2 53741  53.2201  12.9071 0001428  99.3134 260.8020 15.08835037 68797,6917.896,95.438,540.748,538.773,0.0
53741.0,STARLINK-4614,PAYLOAD,2023-12-01 09:36:03,15.08834608,0.0001417,53.2197,11.7169,101.7834,258.3318,-4.2203e-05,-9.59e-06,0.0,0 STARLINK-4614,1 53741U 22107AT  23335.40004356 -.00000959  00000-0 -42203-4 0  9990,2 53741  53.2197  11.7169 0001417 101.7834 258.3318 15.08834608 69616,6917.897,95.438,540.742,538.782,0.0
53741.0,STARLINK-4614,PAYLOAD,2023-12-02 11:02:15,15.08821684,0.0001308,53.2186,6.9568,97.2175,262.8966,-7.4099e-05,-1.466e-05,0.0,0 STARLINK-4614,1 53741U 22107AT  23336.45989957 -.00001466  00000-0 -74099-4 0  9997,2 53741  53.2186   6.9568 0001308  97.2175 262.8966 15.08821684 68998,6917.936,95.439,540.706,538.897,0.0
53741.0,STARLINK-4614,PAYLOAD,2023-12-03 10:53:01,15.08835817,0.0001279,53.2185,2.4969,96.4479,263.6659,9.002e-05,1.145e-05,0.0,0 STARLINK-4614,1 53741U 22107AT  23337.45349203  .00001145  00000-0  90020-4 0  9996,2 53741  53.2185   2.4969 0001279  96.4479 263.6659 15.08835817 69147,6917.893,95.438,540.643,538.873,0.0
53741.0,STARLINK-4614,PAYLOAD,2023-12-04 10:43:48,15.08837251,0.000129,53.2183,358.0366,87.8051,272.3089,0.00018857,2.714e-05,0.0,0 STARLINK-4614,1 53741U 22107AT  23338.44709052  .00002714  00000-0  18857-3 0  9998,2 53741  53.2183 358.0366 0001290  87.8051 272.3089 15.08837251 70071,6917.889,95.438,540.646,538.861,0.0
53741.0,STARLINK-4614,PAYLOAD,2023-12-05 08:59:13,15.0883135,0.0001407,53.2192,353.8742,79.8032,280.3119,-9.117e-05,-1.738e-05,0.0,0 STARLINK-4614,1 53741U 22107AT  23339.37446041 -.00001738  00000-0 -91170-4 0  9994,2 53741  53.2192 353.8742 0001407  79.8032 280.3119 15.08831350 69437,6917.907,95.438,540.745,538.798,0.0
53741.0,STARLINK-4614,PAYLOAD,2023-12-06 07:14:37,15.08835311,0.0001632,53.219,349.7127,70.1238,289.993,-8.1883e-05,-1.591e-05,0.0,0 STARLINK-4614,1 53741U 22107AT  23340.30182131 -.00001591  00000-0 -81883-4 0  9993,2 53741  53.2190 349.7127 0001632  70.1238 289.9930 15.08835311 69570,6917.895,95.438,540.889,538.631,0.0
53741.0,STARLINK-4614,PAYLOAD,2023-12-07 10:16:10,15.08828173,0.0001573,53.2187,344.6568,73.971,286.1456,9.6134e-05,1.242e-05,0.0,0 STARLINK-4614,1 53741U 22107AT  23341.42790188  .00001242  00000-0  96134-4 0  9990,2 53741  53.2187 344.6568 0001573  73.9710 286.1456 15.08828173 69748,6917.917,95.438,540.87,538.693,0.0
53741.0,STARLINK-4614,PAYLOAD,2023-12-08 10:06:58,15.08828227,0.0001567,53.2189,340.1961,80.7678,279.3492,1.3128e-05,-7.9e-07,0.0,0 STARLINK-4614,1 53741U 22107AT  23342.42151133 -.00000079  00000-0  13128-4 0  9992,2 53741  53.2189 340.1961 0001567  80.7678 279.3492 15.08828227 70678,6917.916,95.438,540.865,538.697,0.0
